CCSDS_OMM_VERS = 2.0
CREATION_DATE  = 
ORIGINATOR     = 

OBJECT_NAME    = SL-3 R/B
OBJECT_ID      = 1982-079B
CENTER_NAME    = EARTH
REF_FRAME      = TEME
TIME_SYSTEM    = UTC
MEAN_ELEMENT_THEORY = SGP/SGP4

EPOCH          = 2026-02-23T03:54:39.817440
MEAN_MOTION    = 15.24554556
ECCENTRICITY   = .00245167
INCLINATION    = 81.1464
RA_OF_ASC_NODE = 210.2256
ARG_OF_PERICENTER = 214.0035
MEAN_ANOMALY   = 145.9628

EPHEMERIS_TYPE = 0
CLASSIFICATION_TYPE = U
NORAD_CAT_ID   = 13403
ELEMENT_SET_NO = 999
REV_AT_EPOCH   = 37548
BSTAR          = .32803902E-3
MEAN_MOTION_DOT = .8172E-4
MEAN_MOTION_DDOT = 0

CCSDS_OMM_VERS = 2.0
CREATION_DATE  = 
ORIGINATOR     = 

OBJECT_NAME    = SL-14 R/B
OBJECT_ID      = 1982-092B
CENTER_NAME    = EARTH
REF_FRAME      = TEME
TIME_SYSTEM    = UTC
MEAN_ELEMENT_THEORY = SGP/SGP4

EPOCH          = 2026-02-22T17:04:41.948832
MEAN_MOTION    = 14.86649303
ECCENTRICITY   = .00201167
INCLINATION    = 82.5712
RA_OF_ASC_NODE = 155.4056
ARG_OF_PERICENTER = 355.3324
MEAN_ANOMALY   = 120.0933

EPHEMERIS_TYPE = 0
CLASSIFICATION_TYPE = U
NORAD_CAT_ID   = 13553
ELEMENT_SET_NO = 999
REV_AT_EPOCH   = 32670
BSTAR          = .56443296E-4
MEAN_MOTION_DOT = .527E-5
MEAN_MOTION_DDOT = 0

CCSDS_OMM_VERS = 2.0
CREATION_DATE  = 
ORIGINATOR     = 

OBJECT_NAME    = SL-3 R/B
OBJECT_ID      = 1983-010B
CENTER_NAME    = EARTH
REF_FRAME      = TEME
TIME_SYSTEM    = UTC
MEAN_ELEMENT_THEORY = SGP/SGP4

EPOCH          = 2026-02-22T22:33:13.992192
MEAN_MOTION    = 15.45768351
ECCENTRICITY   = .0018672
INCLINATION    = 81.1047
RA_OF_ASC_NODE = 20.3214
ARG_OF_PERICENTER = 97.4470
MEAN_ANOMALY   = 262.8897

EPHEMERIS_TYPE = 0
CLASSIFICATION_TYPE = U
NORAD_CAT_ID   = 13819
ELEMENT_SET_NO = 999
REV_AT_EPOCH   = 35566
BSTAR          = .37605E-3
MEAN_MOTION_DOT = .18365E-3
MEAN_MOTION_DDOT = 0

CCSDS_OMM_VERS = 2.0
CREATION_DATE  = 
ORIGINATOR     = 

OBJECT_NAME    = SL-3 R/B
OBJECT_ID      = 1983-075B
CENTER_NAME    = EARTH
REF_FRAME      = TEME
TIME_SYSTEM    = UTC
MEAN_ELEMENT_THEORY = SGP/SGP4

EPOCH          = 2026-02-23T04:19:43.739904
MEAN_MOTION    = 15.38021050
ECCENTRICITY   = .00196992
INCLINATION    = 97.6143
RA_OF_ASC_NODE = 58.2140
ARG_OF_PERICENTER = 283.1736
MEAN_ANOMALY   = 76.7310

EPHEMERIS_TYPE = 0
CLASSIFICATION_TYPE = U
NORAD_CAT_ID   = 14208
ELEMENT_SET_NO = 999
REV_AT_EPOCH   = 32792
BSTAR          = .36034847E-3
MEAN_MOTION_DOT = .13487E-3
MEAN_MOTION_DDOT = 0

CCSDS_OMM_VERS = 2.0
CREATION_DATE  = 
ORIGINATOR     = 

OBJECT_NAME    = COSMOS 1536
OBJECT_ID      = 1984-013A
CENTER_NAME    = EARTH
REF_FRAME      = TEME
TIME_SYSTEM    = UTC
MEAN_ELEMENT_THEORY = SGP/SGP4

EPOCH          = 2026-02-23T03:22:58.003968
MEAN_MOTION    = 15.23611259
ECCENTRICITY   = .00134508
INCLINATION    = 82.5447
RA_OF_ASC_NODE = 122.3090
ARG_OF_PERICENTER = 339.4471
MEAN_ANOMALY   = 20.6223

EPHEMERIS_TYPE = 0
CLASSIFICATION_TYPE = U
NORAD_CAT_ID   = 14699
ELEMENT_SET_NO = 999
REV_AT_EPOCH   = 27040
BSTAR          = .32736217E-3
MEAN_MOTION_DOT = .7888E-4
MEAN_MOTION_DDOT = 0

CCSDS_OMM_VERS = 2.0
CREATION_DATE  = 
ORIGINATOR     = 

OBJECT_NAME    = SL-14 R/B
OBJECT_ID      = 1984-027B
CENTER_NAME    = EARTH
REF_FRAME      = TEME
TIME_SYSTEM    = UTC
MEAN_ELEMENT_THEORY = SGP/SGP4

EPOCH          = 2026-02-23T00:19:27.595776
MEAN_MOTION    = 14.85959922
ECCENTRICITY   = .00186155
INCLINATION    = 82.5381
RA_OF_ASC_NODE = 258.7813
ARG_OF_PERICENTER = 26.5642
MEAN_ANOMALY   = 333.6525

EPHEMERIS_TYPE = 0
CLASSIFICATION_TYPE = U
NORAD_CAT_ID   = 14820
ELEMENT_SET_NO = 999
REV_AT_EPOCH   = 24545
BSTAR          = .45548056E-4
MEAN_MOTION_DOT = .423E-5
MEAN_MOTION_DDOT = 0

CCSDS_OMM_VERS = 2.0
CREATION_DATE  = 
ORIGINATOR     = 

OBJECT_NAME    = SL-8 R/B
OBJECT_ID      = 1985-006B
CENTER_NAME    = EARTH
REF_FRAME      = TEME
TIME_SYSTEM    = UTC
MEAN_ELEMENT_THEORY = SGP/SGP4

EPOCH          = 2026-02-23T01:31:40.136736
MEAN_MOTION    = 14.37774840
ECCENTRICITY   = .00190325
INCLINATION    = 74.0446
RA_OF_ASC_NODE = 288.0635
ARG_OF_PERICENTER = 209.0061
MEAN_ANOMALY   = 302.3996

EPHEMERIS_TYPE = 0
CLASSIFICATION_TYPE = U
NORAD_CAT_ID   = 15483
ELEMENT_SET_NO = 999
REV_AT_EPOCH   = 15192
BSTAR          = .55207388E-4
MEAN_MOTION_DOT = .14E-5
MEAN_MOTION_DDOT = 0

CCSDS_OMM_VERS = 2.0
CREATION_DATE  = 
ORIGINATOR     = 

OBJECT_NAME    = SL-12 R/B(2)
OBJECT_ID      = 1985-042D
CENTER_NAME    = EARTH
REF_FRAME      = TEME
TIME_SYSTEM    = UTC
MEAN_ELEMENT_THEORY = SGP/SGP4

EPOCH          = 2026-02-23T04:38:03.820128
MEAN_MOTION    = 14.21978330
ECCENTRICITY   = .00340263
INCLINATION    = 71.1075
RA_OF_ASC_NODE = 118.3575
ARG_OF_PERICENTER = 151.7221
MEAN_ANOMALY   = 219.0823

EPHEMERIS_TYPE = 0
CLASSIFICATION_TYPE = U
NORAD_CAT_ID   = 15772
ELEMENT_SET_NO = 999
REV_AT_EPOCH   = 11233
BSTAR          = .56504412E-4
MEAN_MOTION_DOT = .78E-6
MEAN_MOTION_DDOT = 0

CCSDS_OMM_VERS = 2.0
CREATION_DATE  = 
ORIGINATOR     = 

OBJECT_NAME    = SL-14 R/B
OBJECT_ID      = 1985-069B
CENTER_NAME    = EARTH
REF_FRAME      = TEME
TIME_SYSTEM    = UTC
MEAN_ELEMENT_THEORY = SGP/SGP4

EPOCH          = 2026-02-23T04:54:45.088992
MEAN_MOTION    = 14.86414160
ECCENTRICITY   = .0017376
INCLINATION    = 82.5256
RA_OF_ASC_NODE = 38.5544
ARG_OF_PERICENTER = 237.9591
MEAN_ANOMALY   = 121.9938

EPHEMERIS_TYPE = 0
CLASSIFICATION_TYPE = U
NORAD_CAT_ID   = 15945
ELEMENT_SET_NO = 999
REV_AT_EPOCH   = 17068
BSTAR          = .59200317E-4
MEAN_MOTION_DOT = .548E-5
MEAN_MOTION_DDOT = 0

CCSDS_OMM_VERS = 2.0
CREATION_DATE  = 
ORIGINATOR     = 

OBJECT_NAME    = SL-16 R/B
OBJECT_ID      = 1985-097B
CENTER_NAME    = EARTH
REF_FRAME      = TEME
TIME_SYSTEM    = UTC
MEAN_ELEMENT_THEORY = SGP/SGP4

EPOCH          = 2026-02-23T06:59:26.787264
MEAN_MOTION    = 14.16596099
ECCENTRICITY   = .0009733
INCLINATION    = 71.0033
RA_OF_ASC_NODE = 170.8642
ARG_OF_PERICENTER = 276.1143
MEAN_ANOMALY   = 104.8256

EPHEMERIS_TYPE = 0
CLASSIFICATION_TYPE = U
NORAD_CAT_ID   = 16182
ELEMENT_SET_NO = 999
REV_AT_EPOCH   = 8519
BSTAR          = .15986268E-3
MEAN_MOTION_DOT = .271E-5
MEAN_MOTION_DDOT = 0

CCSDS_OMM_VERS = 2.0
CREATION_DATE  = 
ORIGINATOR     = 

OBJECT_NAME    = SL-14 R/B
OBJECT_ID      = 1986-006B
CENTER_NAME    = EARTH
REF_FRAME      = TEME
TIME_SYSTEM    = UTC
MEAN_ELEMENT_THEORY = SGP/SGP4

EPOCH          = 2026-02-23T02:50:16.194336
MEAN_MOTION    = 14.86794290
ECCENTRICITY   = .00756644
INCLINATION    = 82.5241
RA_OF_ASC_NODE = 273.4544
ARG_OF_PERICENTER = 321.9699
MEAN_ANOMALY   = 37.6189

EPHEMERIS_TYPE = 0
CLASSIFICATION_TYPE = U
NORAD_CAT_ID   = 16496
ELEMENT_SET_NO = 999
REV_AT_EPOCH   = 14704
BSTAR          = .5959304E-4
MEAN_MOTION_DOT = .585E-5
MEAN_MOTION_DDOT = 0

CCSDS_OMM_VERS = 2.0
CREATION_DATE  = 
ORIGINATOR     = 

OBJECT_NAME    = COSMOS 1743
OBJECT_ID      = 1986-034A
CENTER_NAME    = EARTH
REF_FRAME      = TEME
TIME_SYSTEM    = UTC
MEAN_ELEMENT_THEORY = SGP/SGP4

EPOCH          = 2026-02-23T03:02:00.706848
MEAN_MOTION    = 15.57412381
ECCENTRICITY   = .00035463
INCLINATION    = 82.5306
RA_OF_ASC_NODE = 89.1029
ARG_OF_PERICENTER = 8.3816
MEAN_ANOMALY   = 351.7498

EPHEMERIS_TYPE = 0
CLASSIFICATION_TYPE = U
NORAD_CAT_ID   = 16719
ELEMENT_SET_NO = 999
REV_AT_EPOCH   = 17798
BSTAR          = .525557E-3
MEAN_MOTION_DOT = .38663E-3
MEAN_MOTION_DDOT = 0

